{
  "type": "FeatureCollection",
  "features": [
    {
      "type": "Feature",
      "properties": {
        "norad_id": 67066,
        "name": "HULIANWANG DIGUI-126",
        "group": "last-30-days",
        "lat": 32.11298907892307,
        "lon": 10.391755547101285,
        "alt_km": 805.2909761702294,
        "timestamp": "2025-12-20T16:47:35.027022+00:00",
        "meta_object_name": "HULIANWANG DIGUI-126",
        "meta_object_id": "2025-295H",
        "meta_epoch": "2025-12-20T09:51:38.405088",
        "meta_mean_motion": 14.2609717,
        "meta_eccentricity": 0.0011434,
        "meta_inclination": 50.0014,
        "meta_ra_of_asc_node": 339.8136,
        "meta_arg_of_pericenter": 277.2306,
        "meta_mean_anomaly": 82.7308,
        "meta_ephemeris_type": 0,
        "meta_classification_type": "U",
        "meta_norad_cat_id": 67066,
        "meta_element_set_no": 999,
        "meta_rev_at_epoch": 121,
        "meta_bstar": 9.4401e-05,
        "meta_mean_motion_dot": 6.7e-07,
        "meta_mean_motion_ddot": 0,
        "tle_line1": "1 67066U 25295H   25354.41086117  .00000067  00000+0  94401-4 0  9999",
        "tle_line2": "2 67066  50.0014 339.8136 0011434 277.2306  82.7308 14.26097170  1219"
      },
      "geometry": {
        "type": "Point",
        "coordinates": [
          10.391755547101285,
          32.11298907892307
        ]
      }
    },
    {
      "type": "Feature",
      "properties": {
        "norad_id": 67067,
        "name": "HULIANWANG DIGUI-127",
        "group": "last-30-days",
        "lat": 34.87101665687945,
        "lon": 14.39475758104205,
        "alt_km": 804.1738354023255,
        "timestamp": "2025-12-20T16:47:35.027032+00:00",
        "meta_object_name": "HULIANWANG DIGUI-127",
        "meta_object_id": "2025-295J",
        "meta_epoch": "2025-12-20T09:50:28.385664",
        "meta_mean_motion": 14.26250846,
        "meta_eccentricity": 0.0010881,
        "meta_inclination": 50.0053,
        "meta_ra_of_asc_node": 339.8165,
        "meta_arg_of_pericenter": 280.9688,
        "meta_mean_anomaly": 79.0002,
        "meta_ephemeris_type": 0,
        "meta_classification_type": "U",
        "meta_norad_cat_id": 67067,
        "meta_element_set_no": 999,
        "meta_rev_at_epoch": 121,
        "meta_bstar": -0.00026559,
        "meta_mean_motion_dot": -8.02e-06,
        "meta_mean_motion_ddot": 0,
        "tle_line1": "1 67067U 25295J   25354.41005076 -.00000802  00000+0 -26559-3 0  9992",
        "tle_line2": "2 67067  50.0053 339.8165 0010881 280.9688  79.0002 14.26250846  1215"
      },
      "geometry": {
        "type": "Point",
        "coordinates": [
          14.39475758104205,
          34.87101665687945
        ]
      }
    },
    {
      "type": "Feature",
      "properties": {
        "norad_id": 67068,
        "name": "CZ-12 R/B",
        "group": "last-30-days",
        "lat": 20.306608362489687,
        "lon": 139.63551598595402,
        "alt_km": 712.5775551744382,
        "timestamp": "2025-12-20T16:47:35.027042+00:00",
        "meta_object_name": "CZ-12 R/B",
        "meta_object_id": "2025-295K",
        "meta_epoch": "2025-12-20T09:25:47.149248",
        "meta_mean_motion": 14.41128985,
        "meta_eccentricity": 0.0056863,
        "meta_inclination": 49.9943,
        "meta_ra_of_asc_node": 339.0702,
        "meta_arg_of_pericenter": 163.3207,
        "meta_mean_anomaly": 196.96,
        "meta_ephemeris_type": 0,
        "meta_classification_type": "U",
        "meta_norad_cat_id": 67068,
        "meta_element_set_no": 999,
        "meta_rev_at_epoch": 121,
        "meta_bstar": 9.1418e-06,
        "meta_mean_motion_dot": -1.38e-06,
        "meta_mean_motion_ddot": 0,
        "tle_line1": "1 67068U 25295K   25354.39290682 -.00000138  00000+0  91418-5 0  9998",
        "tle_line2": "2 67068  49.9943 339.0702 0056863 163.3207 196.9600 14.41128985  1219"
      },
      "geometry": {
        "type": "Point",
        "coordinates": [
          139.63551598595402,
          20.306608362489687
        ]
      }
    },
    {
      "type": "Feature",
      "properties": {
        "norad_id": 67069,
        "name": "XIWANG-5 02",
        "group": "last-30-days",
        "lat": 8.619367641423162,
        "lon": -133.75547040142243,
        "alt_km": 512.9247495026439,
        "timestamp": "2025-12-20T16:47:35.027055+00:00",
        "meta_object_name": "XIWANG-5 02",
        "meta_object_id": "2025-296A",
        "meta_epoch": "2025-12-20T11:19:18.789600",
        "meta_mean_motion": 15.16821178,
        "meta_eccentricity": 0.0014484,
        "meta_inclination": 41.3527,
        "meta_ra_of_asc_node": 57.4691,
        "meta_arg_of_pericenter": 80.4418,
        "meta_mean_anomaly": 279.8039,
        "meta_ephemeris_type": 0,
        "meta_classification_type": "U",
        "meta_norad_cat_id": 67069,
        "meta_element_set_no": 999,
        "meta_rev_at_epoch": 113,
        "meta_bstar": 0.00042922,
        "meta_mean_motion_dot": 8.428e-05,
        "meta_mean_motion_ddot": 0,
        "tle_line1": "1 67069U 25296A   25354.47174525  .00008428  00000+0  42922-3 0  9999",
        "tle_line2": "2 67069  41.3527  57.4691 0014484  80.4418 279.8039 15.16821178  1133"
      },
      "geometry": {
        "type": "Point",
        "coordinates": [
          -133.75547040142243,
          8.619367641423162
        ]
      }
    },
    {
      "type": "Feature",
      "properties": {
        "norad_id": 67070,
        "name": "DEAR-5",
        "group": "last-30-days",
        "lat": 5.729877535023425,
        "lon": -130.39007638338467,
        "alt_km": 513.6339699974887,
        "timestamp": "2025-12-20T16:47:35.027067+00:00",
        "meta_object_name": "DEAR-5",
        "meta_object_id": "2025-296B",
        "meta_epoch": "2025-12-20T11:18:10.322784",
        "meta_mean_motion": 15.16881639,
        "meta_eccentricity": 0.0016119,
        "meta_inclination": 41.3552,
        "meta_ra_of_asc_node": 57.4652,
        "meta_arg_of_pericenter": 81.8646,
        "meta_mean_anomaly": 278.4003,
        "meta_ephemeris_type": 0,
        "meta_classification_type": "U",
        "meta_norad_cat_id": 67070,
        "meta_element_set_no": 999,
        "meta_rev_at_epoch": 112,
        "meta_bstar": 0.00023487,
        "meta_mean_motion_dot": 4.526e-05,
        "meta_mean_motion_ddot": 0,
        "tle_line1": "1 67070U 25296B   25354.47095281  .00004526  00000+0  23487-3 0  9992",
        "tle_line2": "2 67070  41.3552  57.4652 0016119  81.8646 278.4003 15.16881639  1128"
      },
      "geometry": {
        "type": "Point",
        "coordinates": [
          -130.39007638338467,
          5.729877535023425
        ]
      }
    },
    {
      "type": "Feature",
      "properties": {
        "norad_id": 67071,
        "name": "KZ-11 R/B",
        "group": "last-30-days",
        "lat": 3.57843627380636,
        "lon": 62.751385662509804,
        "alt_km": 131.41599009729634,
        "timestamp": "2025-12-20T16:47:35.027077+00:00",
        "meta_object_name": "KZ-11 R/B",
        "meta_object_id": "2025-296C",
        "meta_epoch": "2025-12-20T13:35:59.156160",
        "meta_mean_motion": 15.10636457,
        "meta_eccentricity": 0.0581991,
        "meta_inclination": 41.3222,
        "meta_ra_of_asc_node": 59.4281,
        "meta_arg_of_pericenter": 8.2061,
        "meta_mean_anomaly": 352.7803,
        "meta_ephemeris_type": 0,
        "meta_classification_type": "U",
        "meta_norad_cat_id": 67071,
        "meta_element_set_no": 999,
        "meta_rev_at_epoch": 111,
        "meta_bstar": 0.00050215,
        "meta_mean_motion_dot": 0.06524805,
        "meta_mean_motion_ddot": 6.5559e-06,
        "tle_line1": "1 67071U 25296C   25354.56665690  .06524805  65559-5  50215-3 0  9998",
        "tle_line2": "2 67071  41.3222  59.4281 0581991   8.2061 352.7803 15.10636457  1115"
      },
      "geometry": {
        "type": "Point",
        "coordinates": [
          62.751385662509804,
          3.57843627380636
        ]
      }
    },
    {
      "type": "Feature",
      "properties": {
        "norad_id": 67072,
        "name": "ELECTRON R/B",
        "group": "last-30-days",
        "lat": 57.43935655100904,
        "lon": -25.37024271972328,
        "alt_km": 261.5035890556419,
        "timestamp": "2025-12-20T16:47:35.027087+00:00",
        "meta_object_name": "ELECTRON R/B",
        "meta_object_id": "2025-297A",
        "meta_epoch": "2025-12-20T13:15:47.958624",
        "meta_mean_motion": 15.95485779,
        "meta_eccentricity": 0.0175019,
        "meta_inclination": 97.4667,
        "meta_ra_of_asc_node": 142.6138,
        "meta_arg_of_pericenter": 204.3534,
        "meta_mean_anomaly": 154.9401,
        "meta_ephemeris_type": 0,
        "meta_classification_type": "U",
        "meta_norad_cat_id": 67072,
        "meta_element_set_no": 999,
        "meta_rev_at_epoch": 102,
        "meta_bstar": 0.0012671,
        "meta_mean_motion_dot": 0.0268025,
        "meta_mean_motion_ddot": 2.2152e-06,
        "tle_line1": "1 67072U 25297A   25354.55263841  .02680250  22152-5  12671-2 0  9999",
        "tle_line2": "2 67072  97.4667 142.6138 0175019 204.3534 154.9401 15.95485779  1029"
      },
      "geometry": {
        "type": "Point",
        "coordinates": [
          -25.37024271972328,
          57.43935655100904
        ]
      }
    }
  ]
}